UNKNOWN                 
1 81614U          26013.46125897  .00005225  00000+0  33358-1 0  9990
2 81614 101.8150  13.3176 0340742  86.3314 277.6641 12.37487386541905
UNKNOWN                 
1 81615U          26020.34040812  .00001804  00000+0  66786-3 0  9991
2 81615  65.8293 332.1689 0768980 118.5593 249.5039 13.34202151588014
UNKNOWN                 
1 81617U          26019.41823783  .00000306  00000+0  20692-2 0  9996
2 81617 101.2608 197.2290 0037189 172.1547 188.0119 12.57563958557846
UNKNOWN                 
1 81624U          26015.15344357  .00002986  00000+0  47950-3 0  9999
2 81624  66.9763  74.5733 0068407 211.6333 148.0670 14.71574169644626
UNKNOWN                 
1 81640U          26020.35889626  .00000305  00000+0  33530-3 0  9990
2 81640  65.8260  52.9741 0976874  61.8987 307.7266 12.57241494514938
UNKNOWN                 
1 81652U          26019.20251061  .00000369  00000+0  49642-3 0  9992
2 81652 102.1454 280.4635 0366475 276.2805 240.6884 13.44439879583684
UNKNOWN                 
1 81667U          26020.55343296  .00006377  00000+0  17117-2 0  9996
2 81667  74.0449 323.9151 0016837 248.4048 111.5318 14.48227563462269
UNKNOWN                 
1 81674U          26013.04869363  .00000736  00000+0  46078-3 0  9990
2 81674  66.8233 285.4302 0029030 211.9398 162.1843 14.09999781618138
UNKNOWN                 
1 81683U          26020.05375108  .00002210  00000+0  48020-3 0  9996
2 81683  81.2145 254.9603 0022908 178.7096 181.4165 14.57630530641446
UNKNOWN                 
1 81693U          26019.40460862  .00000701  00000+0  53343-2 0  9992
2 81693 101.0955  81.7032 0364230  12.3158 348.6521 12.25937419972380
UNKNOWN                 
1 81745U          26019.49373224  .00002319  00000+0  74314-3 0  9993
2 81745  71.0012 304.8688 0005272 194.0299 166.0692 14.40552633635181
UNKNOWN                 
1 81775U          26018.74123026  .00006498  00000+0  19985-2 0  9990
2 81775  82.9184 193.6085 0016472 136.4129 223.8369 14.41358226630604
